{
    "links": {
        "self": "http://www.neowsapp.com/rest/v1/neo/3755205?api_key=iIulBulltgU6a56xZRHN4H3l9WmuAYTsLGpBGhQ2"
    },
    "id": "3755205",
    "neo_reference_id": "3755205",
    "name": "(2016 NX22)",
    "designation": "2016 NX22",
    "nasa_jpl_url": "http://ssd.jpl.nasa.gov/sbdb.cgi?sstr=3755205",
    "absolute_magnitude_h": 23.9,
    "estimated_diameter": {
        "kilometers": {
            "estimated_diameter_min": 0.04411182,
            "estimated_diameter_max": 0.0986370281
        },
        "meters": {
            "estimated_diameter_min": 44.1118199997,
            "estimated_diameter_max": 98.6370281305
        },
        "miles": {
            "estimated_diameter_min": 0.0274098057,
            "estimated_diameter_max": 0.0612901888
        },
        "feet": {
            "estimated_diameter_min": 144.7238235278,
            "estimated_diameter_max": 323.6123073718
        }
    },
    "is_potentially_hazardous_asteroid": false,
    "close_approach_data": [
        {
            "close_approach_date": "2014-06-25",
            "close_approach_date_full": "2014-Jun-25 08:34",
            "epoch_date_close_approach": 1403685240000,
            "relative_velocity": {
                "kilometers_per_second": "3.8984221593",
                "kilometers_per_hour": "14034.3197735614",
                "miles_per_hour": "8720.3805281887"
            },
            "miss_distance": {
                "astronomical": "1.9908782616",
                "lunar": "774.4516437624",
                "kilometers": "297831147.364662792",
                "miles": "185063693.4549068496"
            },
            "orbiting_body": "Juptr"
        },
        {
            "close_approach_date": "2016-08-02",
            "close_approach_date_full": "2016-Aug-02 11:32",
            "epoch_date_close_approach": 1470137520000,
            "relative_velocity": {
                "kilometers_per_second": "9.5179003123",
                "kilometers_per_hour": "34264.4411244474",
                "miles_per_hour": "21290.5912086879"
            },
            "miss_distance": {
                "astronomical": "0.0333438163",
                "lunar": "12.9707445407",
                "kilometers": "4988163.896151281",
                "miles": "3099501.3192824378"
            },
            "orbiting_body": "Earth"
        },
        {
            "close_approach_date": "2088-09-30",
            "close_approach_date_full": "2088-Sep-30 23:21",
            "epoch_date_close_approach": 3747424860000,
            "relative_velocity": {
                "kilometers_per_second": "18.3990468944",
                "kilometers_per_hour": "66236.5688196697",
                "miles_per_hour": "41156.8279979776"
            },
            "miss_distance": {
                "astronomical": "0.4204365754",
                "lunar": "163.5498278306",
                "kilometers": "62896416.149934398",
                "miles": "39082020.7381867724"
            },
            "orbiting_body": "Earth"
        }
    ],
    "orbital_data": {
        "orbit_id": "13",
        "orbit_determination_date": "2017-04-06 08:25:02",
        "first_observation_date": "2016-07-09",
        "last_observation_date": "2016-08-09",
        "data_arc_in_days": 31,
        "observations_used": 69,
        "orbit_uncertainty": "7",
        "minimum_orbit_intersection": ".0313104",
        "jupiter_tisserand_invariant": "3.239",
        "epoch_osculation": "2459000.5",
        "eccentricity": ".5752339586592494",
        "semi_major_axis": "2.434727895355504",
        "inclination": "9.922126406680988",
        "ascending_node_longitude": "128.0654683285993",
        "orbital_period": "1387.631258053629",
        "perihelion_distance": "1.034189729852055",
        "perihelion_argument": "196.2354178126218",
        "aphelion_distance": "3.835266060858953",
        "perihelion_time": "2459001.737661571638",
        "mean_anomaly": "359.6789073731197",
        "mean_motion": ".2594349168128114",
        "equinox": "J2000",
        "orbit_class": {
            "orbit_class_type": "AMO",
            "orbit_class_description": "Near-Earth asteroid orbits similar to that of 1221 Amor",
            "orbit_class_range": "1.017 AU < q (perihelion) < 1.3 AU"
        }
    },
    "is_sentry_object": false
}